YAOGAN-27               
1 40878U 15040A   25144.86329920  .00000000  00000+0  11168-3 0  9991
2 40878 100.0866 143.7084 0008725  35.3898 324.7794 13.16048801468090
GAOFEN-9 01             
1 40894U 15047A   25144.86373144  .00000920  00000+0  12220-3 0  9994
2 40894  97.6783 192.2502 0027174 335.7201  24.2730 14.81827337522663
YAOGAN-28               
1 41026U 15064A   25144.82621945  .00007030  00000+0  29381-3 0  9997
2 41026  97.2550 288.8781 0015854 110.5046 249.7895 15.23797954531505
YAOGAN-29               
1 41038U 15069A   25144.83972922  .00000398  00000+0  56226-4 0  9999
2 41038  98.0353 167.1485 0001597 149.2001 210.9306 14.82618712513074
KENT RIDGE 1            
1 41167U 15077B   25144.67648895  .00003737  00000+0  13563-3 0  9998
2 41167  14.9803 268.0727 0009025 170.3311 189.7185 15.19869322521979
TELEOS-1                
1 41169U 15077D   25144.10669763  .00225373  00000+0  88347-3 0  9999
2 41169  14.9781  56.1515 0002932 264.1310  95.8686 15.84928461523795
GAOFEN-4                
1 41194U 15083A   25142.25336500 -.00000326  00000+0  00000+0 0  9994
2 41194   0.1090  71.9252 0000552 263.8508 101.2884  1.00271891 34607
JASON-3                 
1 41240U 16002A   25144.58044461 -.00000028  00000+0  14459-3 0  9994
2 41240  66.0413 222.4875 0008062 270.1110  89.8981 12.80928263437223
SENTINEL-3A             
1 41335U 16011A   25144.83725954  .00000111  00000+0  64081-4 0  9999
2 41335  98.6260 212.7600 0001156 109.3662 250.7643 14.26735276482685
ZIYUAN 3-2 (ZY 3-2)     
1 41556U 16033A   25144.85871359  .00005080  00000+0  23061-3 0  9993
2 41556  97.4200 222.1288 0007594 213.2232 146.8528 15.21217431498945
CARTOSAT-2C             
1 41599U 16040A   25144.85840195  .00004354  00000+0  20881-3 0  9992
2 41599  97.4238 205.2914 0012293  53.1473 307.0887 15.19350881494759
SKYSAT-C1               
1 41601U 16040C   25144.69304584  .00006565  00000+0  23123-3 0  9993
2 41601  97.0074 193.2835 0003518 116.7400 243.4202 15.29606729498373
LAPAN-A3                
1 41603U 16040E   25144.86751446  .00002908  00000+0  10331-3 0  9991
2 41603  97.1368 150.0931 0010001 335.1579  24.9180 15.29751023495382
BIROS                   
1 41604U 16040F   25144.32681558  .00024284  00000+0  28841-3 0  9995
2 41604  97.0874 173.2126 0004331 207.6991 152.4037 15.61159303496969
