[
  {
    "OBJECT_NAME": "YAOGAN-27",
    "OBJECT_ID": "2015-040A",
    "EPOCH": "2025-05-24T20:43:09.050880",
    "MEAN_MOTION": 13.16048801,
    "ECCENTRICITY": 0.0008725,
    "INCLINATION": 100.0866,
    "RA_OF_ASC_NODE": 143.7084,
    "ARG_OF_PERICENTER": 35.3898,
    "MEAN_ANOMALY": 324.7794,
    "EPHEMERIS_TYPE": 0,
    "CLASSIFICATION_TYPE": "U",
    "NORAD_CAT_ID": 40878,
    "ELEMENT_SET_NO": 999,
    "REV_AT_EPOCH": 46809,
    "BSTAR": 0.00011168,
    "MEAN_MOTION_DOT": 0,
    "MEAN_MOTION_DDOT": 0
  },
  {
    "OBJECT_NAME": "GAOFEN-9 01",
    "OBJECT_ID": "2015-047A",
    "EPOCH": "2025-05-24T20:43:46.396416",
    "MEAN_MOTION": 14.81827337,
    "ECCENTRICITY": 0.0027174,
    "INCLINATION": 97.6783,
    "RA_OF_ASC_NODE": 192.2502,
    "ARG_OF_PERICENTER": 335.7201,
    "MEAN_ANOMALY": 24.273,
    "EPHEMERIS_TYPE": 0,
    "CLASSIFICATION_TYPE": "U",
    "NORAD_CAT_ID": 40894,
    "ELEMENT_SET_NO": 999,
    "REV_AT_EPOCH": 52266,
    "BSTAR": 0.0001222,
    "MEAN_MOTION_DOT": 9.2e-06,
    "MEAN_MOTION_DDOT": 0
  },
  {
    "OBJECT_NAME": "YAOGAN-28",
    "OBJECT_ID": "2015-064A",
    "EPOCH": "2025-05-24T19:49:45.360480",
    "MEAN_MOTION": 15.23797954,
    "ECCENTRICITY": 0.0015854,
    "INCLINATION": 97.255,
    "RA_OF_ASC_NODE": 288.8781,
    "ARG_OF_PERICENTER": 110.5046,
    "MEAN_ANOMALY": 249.7895,
    "EPHEMERIS_TYPE": 0,
    "CLASSIFICATION_TYPE": "U",
    "NORAD_CAT_ID": 41026,
    "ELEMENT_SET_NO": 999,
    "REV_AT_EPOCH": 53150,
    "BSTAR": 0.00029381,
    "MEAN_MOTION_DOT": 7.03e-05,
    "MEAN_MOTION_DDOT": 0
  },
  {
    "OBJECT_NAME": "YAOGAN-29",
    "OBJECT_ID": "2015-069A",
    "EPOCH": "2025-05-24T20:09:12.604608",
    "MEAN_MOTION": 14.82618712,
    "ECCENTRICITY": 0.0001597,
    "INCLINATION": 98.0353,
    "RA_OF_ASC_NODE": 167.1485,
    "ARG_OF_PERICENTER": 149.2001,
    "MEAN_ANOMALY": 210.9306,
    "EPHEMERIS_TYPE": 0,
    "CLASSIFICATION_TYPE": "U",
    "NORAD_CAT_ID": 41038,
    "ELEMENT_SET_NO": 999,
    "REV_AT_EPOCH": 51307,
    "BSTAR": 5.6226e-05,
    "MEAN_MOTION_DOT": 3.98e-06,
    "MEAN_MOTION_DDOT": 0
  },
  {
    "OBJECT_NAME": "KENT RIDGE 1",
    "OBJECT_ID": "2015-077B",
    "EPOCH": "2025-05-24T16:14:08.645280",
    "MEAN_MOTION": 15.19869322,
    "ECCENTRICITY": 0.0009025,
    "INCLINATION": 14.9803,
    "RA_OF_ASC_NODE": 268.0727,
    "ARG_OF_PERICENTER": 170.3311,
    "MEAN_ANOMALY": 189.7185,
    "EPHEMERIS_TYPE": 0,
    "CLASSIFICATION_TYPE": "U",
    "NORAD_CAT_ID": 41167,
    "ELEMENT_SET_NO": 999,
    "REV_AT_EPOCH": 52197,
    "BSTAR": 0.00013563,
    "MEAN_MOTION_DOT": 3.737e-05,
    "MEAN_MOTION_DDOT": 0
  },
  {
    "OBJECT_NAME": "TELEOS-1",
    "OBJECT_ID": "2015-077D",
    "EPOCH": "2025-05-24T02:33:38.675232",
    "MEAN_MOTION": 15.84928461,
    "ECCENTRICITY": 0.0002932,
    "INCLINATION": 14.9781,
    "RA_OF_ASC_NODE": 56.1515,
    "ARG_OF_PERICENTER": 264.131,
    "MEAN_ANOMALY": 95.8686,
    "EPHEMERIS_TYPE": 0,
    "CLASSIFICATION_TYPE": "U",
    "NORAD_CAT_ID": 41169,
    "ELEMENT_SET_NO": 999,
    "REV_AT_EPOCH": 52379,
    "BSTAR": 0.00088347,
    "MEAN_MOTION_DOT": 0.00225373,
    "MEAN_MOTION_DDOT": 0
  },
  {
    "OBJECT_NAME": "GAOFEN-4",
    "OBJECT_ID": "2015-083A",
    "EPOCH": "2025-05-22T06:04:50.736000",
    "MEAN_MOTION": 1.00271891,
    "ECCENTRICITY": 5.52e-05,
    "INCLINATION": 0.109,
    "RA_OF_ASC_NODE": 71.9252,
    "ARG_OF_PERICENTER": 263.8508,
    "MEAN_ANOMALY": 101.2884,
    "EPHEMERIS_TYPE": 0,
    "CLASSIFICATION_TYPE": "U",
    "NORAD_CAT_ID": 41194,
    "ELEMENT_SET_NO": 999,
    "REV_AT_EPOCH": 3460,
    "BSTAR": 0,
    "MEAN_MOTION_DOT": -3.26e-06,
    "MEAN_MOTION_DDOT": 0
  },
  {
    "OBJECT_NAME": "JASON-3",
    "OBJECT_ID": "2016-002A",
    "EPOCH": "2025-05-24T13:55:50.414304",
    "MEAN_MOTION": 12.80928263,
    "ECCENTRICITY": 0.0008062,
    "INCLINATION": 66.0413,
    "RA_OF_ASC_NODE": 222.4875,
    "ARG_OF_PERICENTER": 270.111,
    "MEAN_ANOMALY": 89.8981,
    "EPHEMERIS_TYPE": 0,
    "CLASSIFICATION_TYPE": "U",
    "NORAD_CAT_ID": 41240,
    "ELEMENT_SET_NO": 999,
    "REV_AT_EPOCH": 43722,
    "BSTAR": 0.00014459,
    "MEAN_MOTION_DOT": -2.8e-07,
    "MEAN_MOTION_DDOT": 0
  },
  {
    "OBJECT_NAME": "SENTINEL-3A",
    "OBJECT_ID": "2016-011A",
    "EPOCH": "2025-05-24T20:05:39.224256",
    "MEAN_MOTION": 14.26735276,
    "ECCENTRICITY": 0.0001156,
    "INCLINATION": 98.626,
    "RA_OF_ASC_NODE": 212.76,
    "ARG_OF_PERICENTER": 109.3662,
    "MEAN_ANOMALY": 250.7643,
    "EPHEMERIS_TYPE": 0,
    "CLASSIFICATION_TYPE": "U",
    "NORAD_CAT_ID": 41335,
    "ELEMENT_SET_NO": 999,
    "REV_AT_EPOCH": 48268,
    "BSTAR": 6.4081e-05,
    "MEAN_MOTION_DOT": 1.11e-06,
    "MEAN_MOTION_DDOT": 0
  },
  {
    "OBJECT_NAME": "ZIYUAN 3-2 (ZY 3-2)",
    "OBJECT_ID": "2016-033A",
    "EPOCH": "2025-05-24T20:36:32.854176",
    "MEAN_MOTION": 15.21217431,
    "ECCENTRICITY": 0.0007594,
    "INCLINATION": 97.42,
    "RA_OF_ASC_NODE": 222.1288,
    "ARG_OF_PERICENTER": 213.2232,
    "MEAN_ANOMALY": 146.8528,
    "EPHEMERIS_TYPE": 0,
    "CLASSIFICATION_TYPE": "U",
    "NORAD_CAT_ID": 41556,
    "ELEMENT_SET_NO": 999,
    "REV_AT_EPOCH": 49894,
    "BSTAR": 0.00023061,
    "MEAN_MOTION_DOT": 5.08e-05,
    "MEAN_MOTION_DDOT": 0
  },
  {
    "OBJECT_NAME": "CARTOSAT-2C",
    "OBJECT_ID": "2016-040A",
    "EPOCH": "2025-05-24T20:36:05.928480",
    "MEAN_MOTION": 15.19350881,
    "ECCENTRICITY": 0.0012293,
    "INCLINATION": 97.4238,
    "RA_OF_ASC_NODE": 205.2914,
    "ARG_OF_PERICENTER": 53.1473,
    "MEAN_ANOMALY": 307.0887,
    "EPHEMERIS_TYPE": 0,
    "CLASSIFICATION_TYPE": "U",
    "NORAD_CAT_ID": 41599,
    "ELEMENT_SET_NO": 999,
    "REV_AT_EPOCH": 49475,
    "BSTAR": 0.00020881,
    "MEAN_MOTION_DOT": 4.354e-05,
    "MEAN_MOTION_DDOT": 0
  },
  {
    "OBJECT_NAME": "SKYSAT-C1",
    "OBJECT_ID": "2016-040C",
    "EPOCH": "2025-05-24T16:37:59.160576",
    "MEAN_MOTION": 15.29606729,
    "ECCENTRICITY": 0.0003518,
    "INCLINATION": 97.0074,
    "RA_OF_ASC_NODE": 193.2835,
    "ARG_OF_PERICENTER": 116.74,
    "MEAN_ANOMALY": 243.4202,
    "EPHEMERIS_TYPE": 0,
    "CLASSIFICATION_TYPE": "U",
    "NORAD_CAT_ID": 41601,
    "ELEMENT_SET_NO": 999,
    "REV_AT_EPOCH": 49837,
    "BSTAR": 0.00023123,
    "MEAN_MOTION_DOT": 6.565e-05,
    "MEAN_MOTION_DDOT": 0
  },
  {
    "OBJECT_NAME": "LAPAN-A3",
    "OBJECT_ID": "2016-040E",
    "EPOCH": "2025-05-24T20:49:13.249344",
    "MEAN_MOTION": 15.29751023,
    "ECCENTRICITY": 0.0010001,
    "INCLINATION": 97.1368,
    "RA_OF_ASC_NODE": 150.0931,
    "ARG_OF_PERICENTER": 335.1579,
    "MEAN_ANOMALY": 24.918,
    "EPHEMERIS_TYPE": 0,
    "CLASSIFICATION_TYPE": "U",
    "NORAD_CAT_ID": 41603,
    "ELEMENT_SET_NO": 999,
    "REV_AT_EPOCH": 49538,
    "BSTAR": 0.00010331,
    "MEAN_MOTION_DOT": 2.908e-05,
    "MEAN_MOTION_DDOT": 0
  },
  {
    "OBJECT_NAME": "BIROS",
    "OBJECT_ID": "2016-040F",
    "EPOCH": "2025-05-24T07:50:36.866112",
    "MEAN_MOTION": 15.61159303,
    "ECCENTRICITY": 0.0004331,
    "INCLINATION": 97.0874,
    "RA_OF_ASC_NODE": 173.2126,
    "ARG_OF_PERICENTER": 207.6991,
    "MEAN_ANOMALY": 152.4037,
    "EPHEMERIS_TYPE": 0,
    "CLASSIFICATION_TYPE": "U",
    "NORAD_CAT_ID": 41604,
    "ELEMENT_SET_NO": 999,
    "REV_AT_EPOCH": 49696,
    "BSTAR": 0.00028841,
    "MEAN_MOTION_DOT": 0.00024284,
    "MEAN_MOTION_DDOT": 0
  }
]